NORAD_CAT_ID,OBJECT_NAME,OBJECT_TYPE,EPOCH,MEAN_MOTION,ECCENTRICITY,INCLINATION,RA_OF_ASC_NODE,ARG_OF_PERICENTER,MEAN_ANOMALY,BSTAR,MEAN_MOTION_DOT,MEAN_MOTION_DDOT,TLE_LINE0,TLE_LINE1,TLE_LINE2,SEMIMAJOR_AXIS,PERIOD,APOGEE,PERIGEE,DECAYED
53547.0,STARLINK-4474,PAYLOAD,2024-03-06 03:35:25,15.08837294,0.0001641,53.2161,117.1093,103.5339,256.5836,4.915e-05,4.94e-06,0.0,0 STARLINK-4474,1 53547U 22101W   24066.14959952  .00000494  00000-0  49150-4 0  9992,2 53547  53.2161 117.1093 0001641 103.5339 256.5836 15.08837294 85568,6917.889,95.438,540.889,538.618,0.0
53547.0,STARLINK-4474,PAYLOAD,2024-03-06 13:07:44,15.08850338,0.000166,53.2158,115.3254,104.4965,255.6211,0.00099758,0.00015629,0.0,0 STARLINK-4474,1 53547U 22101W   24066.54704203  .00015629  00000-0  99758-3 0  9997,2 53547  53.2158 115.3254 0001660 104.4965 255.6211 15.08850338 86291,6917.849,95.437,540.862,538.565,0.0
53547.0,STARLINK-4474,PAYLOAD,2024-03-07 03:26:12,15.0884948,0.0001733,53.2156,112.6484,105.7494,254.3689,0.00039977,6.082e-05,0.0,0 STARLINK-4474,1 53547U 22101W   24067.14320070  .00006082  00000-0  39977-3 0  9990,2 53547  53.2156 112.6484 0001733 105.7494 254.3689 15.08849480 85713,6917.851,95.437,540.915,538.518,0.0
53547.0,STARLINK-4474,PAYLOAD,2024-03-07 09:47:45,15.08841742,0.0001478,53.216,111.4588,84.3831,275.7329,5.4762e-05,5.84e-06,0.0,0 STARLINK-4474,1 53547U 22101W   24067.40816253  .00000584  00000-0  54762-4 0  9993,2 53547  53.2160 111.4588 0001478  84.3831 275.7329 15.08841742 86423,6917.875,95.437,540.763,538.718,0.0
53547.0,STARLINK-4474,PAYLOAD,2024-03-08 09:38:31,15.0884705,0.0001357,53.2152,106.9977,89.2,270.9148,0.00010239,1.342e-05,0.0,0 STARLINK-4474,1 53547U 22101W   24068.40175843  .00001342  00000-0  10239-3 0  9990,2 53547  53.2152 106.9977 0001357  89.2000 270.9148 15.08847050 86573,6917.859,95.437,540.663,538.785,0.0
53547.0,STARLINK-4474,PAYLOAD,2024-03-08 19:10:50,15.08855022,0.0001386,53.2157,105.2171,93.32,266.795,0.00013629,1.883e-05,0.0,0 STARLINK-4474,1 53547U 22101W   24068.79919193  .00001883  00000-0  13629-3 0  9992,2 53547  53.2157 105.2171 0001386  93.3200 266.7950 15.08855022 85960,6917.834,95.437,540.658,538.741,0.0
53547.0,STARLINK-4474,PAYLOAD,2024-03-09 01:32:23,15.08844001,0.0001934,53.2158,104.0276,86.7816,273.3398,0.00010141,1.326e-05,0.0,0 STARLINK-4474,1 53547U 22101W   24069.06415865  .00001326  00000-0  10141-3 0  9998,2 53547  53.2158 104.0276 0001934  86.7816 273.3398 15.08844001 86003,6917.868,95.437,541.071,538.395,0.0
53547.0,STARLINK-4474,PAYLOAD,2024-03-09 09:29:19,15.08835395,0.0001353,53.2169,102.5411,96.0818,264.0328,8.889e-05,1.127e-05,0.0,0 STARLINK-4474,1 53547U 22101W   24069.39536561  .00001127  00000-0  88890-4 0  9997,2 53547  53.2169 102.5411 0001353  96.0818 264.0328 15.08835395 86051,6917.894,95.438,540.695,538.823,0.0
53547.0,STARLINK-4474,PAYLOAD,2024-03-09 19:01:37,15.08842184,0.0001432,53.2163,100.756,92.4709,267.6447,9.5879e-05,1.238e-05,0.0,0 STARLINK-4474,1 53547U 22101W   24069.79280091  .00001238  00000-0  95879-4 0  9993,2 53547  53.2163 100.7560 0001432  92.4709 267.6447 15.08842184 86782,6917.874,95.437,540.729,538.748,0.0
53547.0,STARLINK-4474,PAYLOAD,2024-03-10 10:55:29,15.08836222,0.0001538,53.2176,97.7828,99.6365,260.4801,1.7338e-05,-1.2e-07,0.0,0 STARLINK-4474,1 53547U 22101W   24070.45520787 -.00000012  00000-0  17338-4 0  9991,2 53547  53.2176  97.7828 0001538  99.6365 260.4801 15.08836222 86211,6917.892,95.438,540.821,538.693,0.0
53547.0,STARLINK-4474,PAYLOAD,2024-03-10 18:52:24,15.08847079,0.0001515,53.2171,96.2944,85.8279,274.2886,3.7199e-05,3.04e-06,0.0,0 STARLINK-4474,1 53547U 22101W   24070.78639995  .00000304  00000-0  37199-4 0  9999,2 53547  53.2171  96.2944 0001515  85.8279 274.2886 15.08847079 86268,6917.859,95.437,540.772,538.676,0.0
53547.0,STARLINK-4474,PAYLOAD,2024-03-11 09:10:53,15.08844818,0.0001431,53.2152,93.6176,87.5814,272.5342,0.00018463,2.652e-05,0.0,0 STARLINK-4474,1 53547U 22101W   24071.38256018  .00002652  00000-0  18463-3 0  9997,2 53547  53.2152  93.6176 0001431  87.5814 272.5342 15.08844818 87027,6917.866,95.437,540.721,538.741,0.0
53547.0,STARLINK-4474,PAYLOAD,2024-03-12 07:26:17,15.08832787,0.0001337,53.2149,89.4546,92.4192,267.6953,-4.5316e-05,-1.009e-05,0.0,0 STARLINK-4474,1 53547U 22101W   24072.30992669 -.00001009  00000-0 -45316-4 0  9994,2 53547  53.2149  89.4546 0001337  92.4192 267.6953 15.08832787 86491,6917.902,95.438,540.692,538.843,0.0
53547.0,STARLINK-4474,PAYLOAD,2024-03-13 07:17:05,15.08831959,0.0001157,53.2164,84.9902,112.7842,247.3273,0.0001226,1.663e-05,0.0,0 STARLINK-4474,1 53547U 22101W   24073.30353195  .00001663  00000-0  12260-3 0  9995,2 53547  53.2164  84.9902 0001157 112.7842 247.3273 15.08831959 87314,6917.905,95.438,540.57,538.97,0.0
53547.0,STARLINK-4474,PAYLOAD,2024-03-14 03:57:05,15.08846765,0.0001355,53.2147,81.1269,101.6066,258.5078,0.00036895,5.59e-05,0.0,0 STARLINK-4474,1 53547U 22101W   24074.16464766  .00005590  00000-0  36895-3 0  9990,2 53547  53.2147  81.1269 0001355 101.6066 258.5078 15.08846765 86772,6917.86,95.437,540.662,538.787,0.0
53547.0,STARLINK-4474,PAYLOAD,2024-03-14 07:07:51,15.08852132,0.0001378,53.2147,80.5321,100.0117,260.1031,0.00048728,7.478e-05,0.0,0 STARLINK-4474,1 53547U 22101W   24074.29712704  .00007478  00000-0  48728-3 0  9997,2 53547  53.2147  80.5321 0001378 100.0117 260.1031 15.08852132 87469,6917.843,95.437,540.662,538.755,0.0
53547.0,STARLINK-4474,PAYLOAD,2024-03-15 03:47:52,15.08847435,0.0001603,53.2161,76.668,101.9651,258.1521,0.00010417,1.371e-05,0.0,0 STARLINK-4474,1 53547U 22101W   24075.15824444  .00001371  00000-0  10417-3 0  9998,2 53547  53.2161  76.6680 0001603 101.9651 258.1521 15.08847435 86924,6917.858,95.437,540.832,538.614,0.0
53547.0,STARLINK-4474,PAYLOAD,2024-03-15 05:23:15,15.08845912,0.0001586,53.2161,76.3706,101.7611,258.3559,6.1901e-05,6.97e-06,0.0,0 STARLINK-4474,1 53547U 22101W   24075.22448451  .00000697  00000-0  61901-4 0  9991,2 53547  53.2161  76.3706 0001586 101.7611 258.3559 15.08845912 87601,6917.862,95.437,540.824,538.63,0.0
53547.0,STARLINK-4474,PAYLOAD,2024-03-16 03:38:39,15.08840635,0.0001606,53.2165,72.2073,101.9488,258.1685,-7.0732e-05,-1.414e-05,0.0,0 STARLINK-4474,1 53547U 22101W   24076.15184525 -.00001414  00000-0 -70732-4 0  9995,2 53547  53.2165  72.2073 0001606 101.9488 258.1685 15.08840635 87070,6917.878,95.438,540.854,538.632,0.0
53547.0,STARLINK-4474,PAYLOAD,2024-03-16 05:14:02,15.08841805,0.000157,53.217,71.9101,102.9327,257.1841,-2.1991e-05,-6.38e-06,0.0,0 STARLINK-4474,1 53547U 22101W   24076.21808879 -.00000638  00000-0 -21991-4 0  9997,2 53547  53.2170  71.9101 0001570 102.9327 257.1841 15.08841805 87755,6917.875,95.437,540.826,538.654,0.0
53547.0,STARLINK-4474,PAYLOAD,2024-03-17 05:04:49,15.08837056,0.0001457,53.2168,67.4486,97.8699,262.2459,9.1428e-05,1.167e-05,0.0,0 STARLINK-4474,1 53547U 22101W   24077.21168892  .00001167  00000-0  91428-4 0  9990,2 53547  53.2168  67.4486 0001457  97.8699 262.2459 15.08837056 87234,6917.889,95.438,540.762,538.746,0.0
53547.0,STARLINK-4474,PAYLOAD,2024-03-17 06:40:13,15.0883757,0.0001402,53.2165,67.1513,93.9514,266.1638,9.4509e-05,1.216e-05,0.0,0 STARLINK-4474,1 53547U 22101W   24077.27792885  .00001216  00000-0  94509-4 0  9999,2 53547  53.2165  67.1513 0001402  93.9514 266.1638 15.08837570 87910,6917.888,95.438,540.723,538.783,0.0
53547.0,STARLINK-4474,PAYLOAD,2024-03-18 06:31:00,15.08839343,0.0001425,53.2172,62.6909,94.4644,265.6511,9.0382e-05,1.151e-05,0.0,0 STARLINK-4474,1 53547U 22101W   24078.27152975  .00001151  00000-0  90382-4 0  9993,2 53547  53.2172  62.6909 0001425  94.4644 265.6511 15.08839343 87398,6917.882,95.438,540.733,538.762,0.0
53547.0,STARLINK-4474,PAYLOAD,2024-03-18 22:24:51,15.08842289,0.0001468,53.2177,59.7179,92.8426,267.2734,9.7845e-05,1.27e-05,0.0,0 STARLINK-4474,1 53547U 22101W   24078.93392812  .00001270  00000-0  97845-4 0  9995,2 53547  53.2177  59.7179 0001468  92.8426 267.2734 15.08842289 88160,6917.873,95.437,540.754,538.723,0.0
53547.0,STARLINK-4474,PAYLOAD,2024-03-19 07:57:09,15.08847966,0.0001476,53.2178,57.9322,91.6484,268.4677,0.00014241,1.98e-05,0.0,0 STARLINK-4474,1 53547U 22101W   24079.33136416  .00001980  00000-0  14241-3 0  9992,2 53547  53.2178  57.9322 0001476  91.6484 268.4677 15.08847966 87559,6917.856,95.437,540.742,538.7,0.0
53547.0,STARLINK-4474,PAYLOAD,2024-03-20 04:37:10,15.08846321,0.0001458,53.2177,54.066,98.9241,261.1916,0.00010634,1.405e-05,0.0,0 STARLINK-4474,1 53547U 22101W   24080.19248421  .00001405  00000-0  10634-3 0  9992,2 53547  53.2177  54.0660 0001458  98.9241 261.1916 15.08846321 87686,6917.861,95.437,540.735,538.717,0.0
53547.0,STARLINK-4474,PAYLOAD,2024-03-21 04:27:57,15.08842012,0.0001421,53.2178,49.6054,102.3675,257.7476,8.8371e-06,-1.47e-06,0.0,0 STARLINK-4474,1 53547U 22101W   24081.18608744 -.00000147  00000-0  88371-5 0  9998,2 53547  53.2178  49.6054 0001421 102.3675 257.7476 15.08842012 87837,6917.874,95.437,540.722,538.756,0.0
53547.0,STARLINK-4474,PAYLOAD,2024-03-21 07:38:44,15.0884352,0.0001423,53.2179,49.0103,101.9267,258.1885,1.6983e-05,-1.8e-07,0.0,0 STARLINK-4474,1 53547U 22101W   24081.31856588 -.00000018  00000-0  16983-4 0  9990,2 53547  53.2179  49.0103 0001423 101.9267 258.1885 15.08843520 88522,6917.87,95.437,540.719,538.75,0.0
53547.0,STARLINK-4474,PAYLOAD,2024-03-22 04:18:44,15.08842143,0.0001539,53.2186,45.1441,104.262,255.8543,8.5471e-05,1.073e-05,0.0,0 STARLINK-4474,1 53547U 22101W   24082.17968466  .00001073  00000-0  85471-4 0  9993,2 53547  53.2186  45.1441 0001539 104.2620 255.8543 15.08842143 88658,6917.874,95.437,540.803,538.674,0.0
53547.0,STARLINK-4474,PAYLOAD,2024-03-22 21:48:00,15.08826761,0.0001512,53.2192,41.874,109.0029,251.1127,0.00012161,1.647e-05,0.0,0 STARLINK-4474,1 53547U 22101W   24082.90833344  .00001647  00000-0  12161-3 0  9992,2 53547  53.2192  41.8740 0001512 109.0029 251.1127 15.08826761 88764,6917.921,95.438,540.832,538.74,0.0
